STARLINK-4106           
1 53145U 22083P   22205.16667824 -.01241255  00000+0 -64758-2 0  9997
2 53145  53.2174  14.4093 0011050  45.6667 177.2373 15.82648315  1682
STARLINK-4099           
1 53146U 22083Q   22205.58334491 -.01185854  00000+0 -65353-2 0  9999
2 53146  53.2176  12.3229 0007945  37.6264  38.2079 15.81446253  1747
STARLINK-4094           
1 53147U 22083R   22205.58334491 -.01186363  00000+0 -65153-2 0  9994
2 53147  53.2175  12.3195 0007240  32.7896  45.0096 15.81536246  1741
STARLINK-4066           
1 53148U 22083S   22204.91667824 -.01237977  00000+0 -62401-2 0  9991
2 53148  53.2176  15.6663 0013641  49.0728 187.9945 15.83286618  1304
STARLINK-4021           
1 53149U 22083T   22204.91667824 -.01240458  00000+0 -61641-2 0  9995
2 53149  53.2176  15.6563 0014656  47.4140 194.8583 15.83555721  1300
STARLINK-4038           
1 53150U 22083U   22204.91667824 -.01237916  00000+0 -62344-2 0  9993
2 53150  53.2176  15.6643 0012442  47.6719 190.4433 15.83340569  1304
STARLINK-4040           
1 53151U 22083V   22204.91667824 -.01238217  00000+0 -62217-2 0  9998
2 53151  53.2176  15.6627 0012301  47.5620 191.6196 15.83392818  1304
STARLINK-4045           
1 53152U 22083W   22204.91667824 -.01238204  00000+0 -62258-2 0  9990
2 53152  53.2176  15.6637 0013041  48.6825 189.8012 15.83357011  1309
STARLINK-4098           
1 53153U 22083X   22205.16667824 -.01244686  00000+0 -64625-2 0  9990
2 53153  53.2174  14.4052 0010979  45.7467 179.3401 15.82758470  1683
STARLINK-4077           
1 53154U 22083Y   22205.16667824 -.01242838  00000+0 -64595-2 0  9994
2 53154  53.2174  14.4062 0011446  46.6076 177.7602 15.82720531  1683
STARLINK-4088           
1 53155U 22083Z   22205.16667824 -.01244239  00000+0 -64446-2 0  9997
2 53155  53.2174  14.4030 0010838  45.5231 180.6486 15.82811905  1683
STARLINK-4087           
1 53156U 22083AA  22205.16667824 -.01243981  00000+0 -64483-2 0  9992
2 53156  53.2174  14.4033 0010887  45.4031 180.4084 15.82793680  1689
STARLINK-4093           
1 53157U 22083AB  22205.16667824 -.01244563  00000+0 -64259-2 0  9991
2 53157  53.2174  14.4017 0011959  47.9295 178.9562 15.82848184  1685
STARLINK-4054           
1 53158U 22083AC  22204.91667824 -.01238397  00000+0 -62136-2 0  9994
2 53158  53.2176  15.6611 0012100  47.0614 192.8092 15.83429104  1306
STARLINK-4111           
1 53159U 22083AD  22205.58334491 -.01185961  00000+0 -64460-2 0  9990
2 53159  53.2175  12.3104 0007474  34.1248  48.3473 15.81750737  1748
STARLINK-4096           
1 53160U 22083AE  22204.91667824 -.01238765  00000+0 -61985-2 0  9997
2 53160  53.2176  15.6590 0012176  47.1028 193.7837 15.83484489  1302
STARLINK-4055           
1 53161U 22083AF  22204.91667824 -.01239442  00000+0 -61685-2 0  9998
2 53161  53.2176  15.6553 0012396  47.5705 195.3847 15.83591733  1302
STARLINK-4114           
1 53162U 22083AG  22204.91667824 -.01239432  00000+0 -61802-2 0  9999
2 53162  53.2176  15.6577 0013465  48.6970 192.8813 15.83520125  1305
STARLINK-4104           
1 53163U 22083AH  22205.58334491 -.01185929  00000+0 -64180-2 0  9998
2 53163  53.2175  12.3066 0007512  34.2105  50.1719 15.81841723  1746
STARLINK-4116           
1 53164U 22083AJ  22205.16667824 -.01245431  00000+0 -64108-2 0  9997
2 53164  53.2174  14.3983 0011781  46.8561 181.4889 15.82918854  1684
STARLINK-4090           
1 53165U 22083AK  22205.16667824 -.01244100  00000+0 -63785-2 0  9990
2 53165  53.2174  14.3952 0011473  46.3964 183.7287 15.83007943  1687
STARLINK-4110           
1 53166U 22083AL  22205.16667824 -.01243478  00000+0 -63929-2 0  9998
2 53166  53.2174  14.3969 0011293  46.4540 182.5981 15.82953951  1683
STARLINK-3683           
1 53167U 22083AM  22205.16667824 -.01244569  00000+0 -63543-2 0  9993
2 53167  53.2174  14.3915 0011522  47.2232 184.7178 15.83094896  1684
STARLINK-4105           
1 53168U 22083AN  22205.16667824 -.01243975  00000+0 -63841-2 0  9995
2 53168  53.2174  14.3955 0011343  46.1908 183.5668 15.82990790  1686
STARLINK-4117           
1 53169U 22083AP  22205.16667824 -.01244361  00000+0 -63522-2 0  9992
2 53169  53.2174  14.3924 0012221  47.6714 183.8938 15.83078149  1689
STARLINK-4095           
1 53170U 22083AQ  22204.91667824 -.01240290  00000+0 -61386-2 0  9999
2 53170  53.2176  15.6515 0013315  48.4975 196.1692 15.83681093  1644
STARLINK-4052           
1 53171U 22083AR  22205.16667824 -.01246323  00000+0 -63233-2 0  9994
2 53171  53.2174  14.3858 0011294  46.6049 188.1968 15.83236308  1681
STARLINK-4299           
1 53172U 22083AS  22205.58334491 -.01185343  00000+0 -63876-2 0  9999
2 53172  53.2175  12.3031 0008440  38.2846  47.6543 15.81910937  1745
STARLINK-4300           
1 53173U 22083AT  22205.16667824 -.01245283  00000+0 -63285-2 0  9997
2 53173  53.2174  14.3896 0013074  49.2779 183.7233 15.83148415  1689
STARLINK-4205           
1 53174U 22083AU  22205.16667824 -.01244651  00000+0 -63612-2 0  9990
2 53174  53.2174  14.3928 0011960  48.1561 183.0416 15.83061498  1686
STARLINK-4292           
1 53175U 22083AV  22205.16667824 -.01247402  00000+0 -63008-2 0  9997
2 53175  53.2174  14.3846 0013245  49.7801 185.6925 15.83274496  1685
STARLINK-4294           
1 53176U 22083AW  22205.16667824 -.01244431  00000+0 -63374-2 0  9993
2 53176  53.2174  14.3906 0012743  48.7088 183.5770 15.83112937  1687
STARLINK-4298           
1 53177U 22083AX  22205.58334491 -.01185309  00000+0 -63411-2 0  9991
2 53177  53.2175  12.2976 0009065  41.8262  47.1986 15.82050877  1748
STARLINK-4280           
1 53178U 22083AY  22205.58334491 -.01282334  47130-3 -41274-2 0  9990
2 53178  53.2179  12.1034 0020058  57.0254 129.9893 15.89933361  1754
STARLINK-4276           
1 53179U 22083AZ  22205.58334491 -.01186571  00000+0 -63234-2 0  9998
2 53179  53.2175  12.2922 0007179  33.0555  58.6335 15.82175769  1746
STARLINK-4258           
1 53180U 22083BA  22205.16667824 -.01245804  00000+0 -63251-2 0  9997
2 53180  53.2174  14.3886 0013221  48.9792 184.3975 15.83164974  1689
STARLINK-4273           
1 53181U 22083BB  22205.58334491 -.01185464  00000+0 -63354-2 0  9994
2 53181  53.2175  12.2963 0008421  38.9845  50.7914 15.82087483  1742
STARLINK-4278           
1 53182U 22083BC  22205.16667824 -.01246332  00000+0 -63233-2 0  9996
2 53182  53.2174  14.3873 0012471  48.1177 185.9389 15.83203193  1685
STARLINK-4268           
1 53183U 22083BD  22205.16667824 -.01246904  00000+0 -62992-2 0  9993
2 53183  53.2174  14.3858 0013700  50.5034 184.6138 15.83256401  1682
STARLINK-4257           
1 53184U 22083BE  22205.16667824 -.01247082  00000+0 -63015-2 0  9999
2 53184  53.2174  14.3837 0012373  47.7701 188.0559 15.83292141  1680
FALCON 9 DEB            
1 53185U 22083BF  22204.59637949  .00629477  19375-3  79563-3 0  9995
2 53185  53.2201  16.9725 0068772  63.2119 297.5927 16.02067416   968
FALCON 9 DEB            
1 53186U 22083BG  22204.59458614  .00621101  19019-3  78603-3 0  9991
2 53186  53.2185  16.9573 0064035  64.5541 296.2099 16.02646815   964
FALCON 9 DEB            
1 53187U 22083BH  22204.59033274  .00653943  21542-3  77055-3 0  9996
2 53187  53.2174  16.9229 0061859  59.7246 300.9889 16.03978036   964
FALCON 9 DEB            
1 53188U 22083BJ  22204.58969984  .00658118  21854-3  77044-3 0  9995
2 53188  53.2186  16.9176 0061923  60.8563 299.8649 16.04066603   965
NOAA 1 [-]              
1 04793U 70106A   22205.18117753 -.00000044  00000+0 -20579-5 0  9998
2 04793 101.5546 268.0620 0031188 250.3521 172.0510 12.54006359362675
NOAA 2 (ITOS-D) [-]     
1 06235U 72082A   22204.86658986 -.00000016  00000+0  19172-3 0  9991
2 06235 101.9541 187.3290 0004264  11.4135  51.2685 12.53149497276535
NOAA 3 [-]              
1 06920U 73086A   22205.49859566 -.00000047  00000+0 -71227-5 0  9990
2 06920 102.2091 187.1447 0006057 221.0704 250.4895 12.40347418205576
NOAA 4 [-]              
1 07529U 74089A   22205.57594755 -.00000040  00000+0  36059-4 0  9990
2 07529 101.9143 185.3238 0009391  34.9942  80.7829 12.53158797181447
NOAA 5 [-]              
1 09057U 76077A   22204.84667260 -.00000046  00000+0 -74094-5 0  9997
2 09057 102.1006 172.4504 0010359  71.4746 341.9980 12.37772166 78240
TIROS N [-]             
1 11060U 78096A   22205.16988696  .00000078  00000+0  58434-4 0  9994
2 11060  98.6332 257.9360 0011307  42.9903 317.2155 14.18400492477052
NOAA 6 [-]              
1 11416U 79057A   22204.90089878  .00000164  00000+0  75175-4 0  9999
2 11416  98.6633 215.8119 0010962 145.8938 214.2953 14.33776414246742
NOAA 7 [-]              
1 12553U 81059A   22205.15140594  .00000011  00000+0  28229-4 0  9997
2 12553  98.9966 250.0193 0011726  16.8396 343.3165 14.17337659123215
NOAA 8 [-]              
1 13923U 83022A   22205.54134154  .00000076  00000+0  47690-4 0  9993
2 13923  98.6876 195.9425 0016273 100.2037 260.0980 14.28819037 47965
NOAA 9 [-]              
1 15427U 84123A   22204.90557073  .00000073  00000+0  60096-4 0  9997
2 15427  99.0470 177.8660 0015857  63.8280 350.4457 14.16211423941779
NOAA 10 [-]             
1 16969U 86073A   22204.88167939  .00000064  00000+0  43251-4 0  9994
2 16969  98.5688 190.3680 0011684 200.7632 217.9098 14.28209651866031
NOAA 11 [-]             
1 19531U 88089A   22204.89223034  .00000017  00000+0  29399-4 0  9996
2 19531  98.4251 191.9749 0012330  75.1849 285.0690 14.15315655745971
NOAA 12 [-]             
1 21263U 91032A   22204.90861645  .00000045  00000+0  36842-4 0  9993
2 21263  98.5142 203.7096 0012688 229.6991 130.3081 14.26001491621929
NOAA 13 [-]             
1 22739U 93050A   22205.55554227  .00000028  00000+0  37103-4 0  9993
2 22739  98.5060 183.5098 0008469 233.4614 126.5780 14.12851464492535
NOAA 14 [-]             
1 23455U 94089A   22204.92098961  .00000030  00000+0  36891-4 0  9996
2 23455  98.4462 229.6500 0008765 213.6555 146.4063 14.14202660421862
